[{"OBJECT_NAME":"ONEWEB-0034","OBJECT_ID":"2020-020AG","EPOCH":"2025-07-31T14:27:58.003488","MEAN_MOTION":13.11417062,"ECCENTRICITY":0.0001775,"INCLINATION":87.8812,"RA_OF_ASC_NODE":84.947,"ARG_OF_PERICENTER":79.1492,"MEAN_ANOMALY":280.9836,"EPHEMERIS_TYPE":0,"CLASSIFICATION_TYPE":"U","NORAD_CAT_ID":45454,"ELEMENT_SET_NO":999,"REV_AT_EPOCH":26057,"BSTAR":-0.0017493,"MEAN_MOTION_DOT":-6.07e-6,"MEAN_MOTION_DDOT":0},{"OBJECT_NAME":"ONEWEB-0060","OBJECT_ID":"2020-020AH","EPOCH":"2025-07-31T13:46:29.049312","MEAN_MOTION":13.11412775,"ECCENTRICITY":0.0002944,"INCLINATION":87.8807,"RA_OF_ASC_NODE":84.9821,"ARG_OF_PERICENTER":81.8555,"MEAN_ANOMALY":278.2907,"EPHEMERIS_TYPE":0,"CLASSIFICATION_TYPE":"U","NORAD_CAT_ID":45455,"ELEMENT_SET_NO":999,"REV_AT_EPOCH":26052,"BSTAR":0.00050528,"MEAN_MOTION_DOT":1.92e-6,"MEAN_MOTION_DDOT":0},{"OBJECT_NAME":"ONEWEB-0086","OBJECT_ID":"2020-020AJ","EPOCH":"2025-07-31T16:55:43.558464","MEAN_MOTION":13.11416836,"ECCENTRICITY":0.000244,"INCLINATION":87.8813,"RA_OF_ASC_NODE":84.9242,"ARG_OF_PERICENTER":69.9187,"MEAN_ANOMALY":290.2203,"EPHEMERIS_TYPE":0,"CLASSIFICATION_TYPE":"U","NORAD_CAT_ID":45456,"ELEMENT_SET_NO":999,"REV_AT_EPOCH":26060,"BSTAR":0.00128,"MEAN_MOTION_DOT":4.66e-6,"MEAN_MOTION_DDOT":0},{"OBJECT_NAME":"ONEWEB-0088","OBJECT_ID":"2020-020AK","EPOCH":"2025-07-31T14:34:04.069920","MEAN_MOTION":13.1141929,"ECCENTRICITY":0.0001787,"INCLINATION":87.881,"RA_OF_ASC_NODE":84.8908,"ARG_OF_PERICENTER":83.8275,"MEAN_ANOMALY":276.3056,"EPHEMERIS_TYPE":0,"CLASSIFICATION_TYPE":"U","NORAD_CAT_ID":45457,"ELEMENT_SET_NO":999,"REV_AT_EPOCH":26052,"BSTAR":-0.0011616,"MEAN_MOTION_DOT":-3.99e-6,"MEAN_MOTION_DDOT":0},{"OBJECT_NAME":"ONEWEB-0102","OBJECT_ID":"2020-100A","EPOCH":"2025-07-31T15:12:34.689312","MEAN_MOTION":13.12441524,"ECCENTRICITY":0.0001627,"INCLINATION":87.8849,"RA_OF_ASC_NODE":54.4111,"ARG_OF_PERICENTER":81.7813,"MEAN_ANOMALY":278.35,"EPHEMERIS_TYPE":0,"CLASSIFICATION_TYPE":"U","NORAD_CAT_ID":47258,"ELEMENT_SET_NO":999,"REV_AT_EPOCH":22268,"BSTAR":0.00085137,"MEAN_MOTION_DOT":3.19e-6,"MEAN_MOTION_DDOT":0},{"OBJECT_NAME":"ONEWEB-0109","OBJECT_ID":"2020-100B","EPOCH":"2025-07-31T13:34:28.855200","MEAN_MOTION":13.1244117,"ECCENTRICITY":0.0001713,"INCLINATION":87.885,"RA_OF_ASC_NODE":54.3947,"ARG_OF_PERICENTER":82.1029,"MEAN_ANOMALY":278.0294,"EPHEMERIS_TYPE":0,"CLASSIFICATION_TYPE":"U","NORAD_CAT_ID":47259,"ELEMENT_SET_NO":999,"REV_AT_EPOCH":22250,"BSTAR":0.00049383,"MEAN_MOTION_DOT":1.9e-6,"MEAN_MOTION_DDOT":0},{"OBJECT_NAME":"ONEWEB-0110","OBJECT_ID":"2020-100C","EPOCH":"2025-07-31T14:11:50.650944","MEAN_MOTION":13.12443167,"ECCENTRICITY":0.0002021,"INCLINATION":87.8856,"RA_OF_ASC_NODE":54.3722,"ARG_OF_PERICENTER":81.9946,"MEAN_ANOMALY":278.1412,"EPHEMERIS_TYPE":0,"CLASSIFICATION_TYPE":"U","NORAD_CAT_ID":47260,"ELEMENT_SET_NO":999,"REV_AT_EPOCH":22267,"BSTAR":-0.001117,"MEAN_MOTION_DOT":-3.89e-6,"MEAN_MOTION_DDOT":0},{"OBJECT_NAME":"ONEWEB-0111","OBJECT_ID":"2020-100D","EPOCH":"2025-07-31T14:56:13.762464","MEAN_MOTION":13.124432,"ECCENTRICITY":0.0001738,"INCLINATION":87.8855,"RA_OF_ASC_NODE":54.3819,"ARG_OF_PERICENTER":85.191,"MEAN_ANOMALY":274.9417,"EPHEMERIS_TYPE":0,"CLASSIFICATION_TYPE":"U","NORAD_CAT_ID":47261,"ELEMENT_SET_NO":999,"REV_AT_EPOCH":22251,"BSTAR":0.0011945,"MEAN_MOTION_DOT":4.42e-6,"MEAN_MOTION_DDOT":0},{"OBJECT_NAME":"ONEWEB-0114","OBJECT_ID":"2020-100E","EPOCH":"2025-07-31T13:50:48.335712","MEAN_MOTION":13.12441195,"ECCENTRICITY":0.000144,"INCLINATION":87.8844,"RA_OF_ASC_NODE":54.3887,"ARG_OF_PERICENTER":80.4456,"MEAN_ANOMALY":279.6835,"EPHEMERIS_TYPE":0,"CLASSIFICATION_TYPE":"U","NORAD_CAT_ID":47262,"ELEMENT_SET_NO":999,"REV_AT_EPOCH":22246,"BSTAR":-0.00058189,"MEAN_MOTION_DOT":-1.97e-6,"MEAN_MOTION_DDOT":0},{"OBJECT_NAME":"ONEWEB-0117","OBJECT_ID":"2020-100F","EPOCH":"2025-07-31T13:39:08.723808","MEAN_MOTION":13.12442352,"ECCENTRICITY":0.0001783,"INCLINATION":87.8855,"RA_OF_ASC_NODE":54.3841,"ARG_OF_PERICENTER":86.2566,"MEAN_ANOMALY":273.8766,"EPHEMERIS_TYPE":0,"CLASSIFICATION_TYPE":"U","NORAD_CAT_ID":47263,"ELEMENT_SET_NO":999,"REV_AT_EPOCH":22247,"BSTAR":0.00022535,"MEAN_MOTION_DOT":9.4e-7,"MEAN_MOTION_DDOT":0},{"OBJECT_NAME":"ONEWEB-0118","OBJECT_ID":"2020-100G","EPOCH":"2025-07-31T19:55:12.228960","MEAN_MOTION":13.12443471,"ECCENTRICITY":0.000142,"INCLINATION":87.8857,"RA_OF_ASC_NODE":54.3323,"ARG_OF_PERICENTER":91.8034,"MEAN_ANOMALY":268.3257,"EPHEMERIS_TYPE":0,"CLASSIFICATION_TYPE":"U","NORAD_CAT_ID":47264,"ELEMENT_SET_NO":999,"REV_AT_EPOCH":22270,"BSTAR":-0.00061774,"MEAN_MOTION_DOT":-2.1e-6,"MEAN_MOTION_DDOT":0},{"OBJECT_NAME":"ONEWEB-0119","OBJECT_ID":"2020-100H","EPOCH":"2025-07-31T15:05:34.984896","MEAN_MOTION":13.12442798,"ECCENTRICITY":0.0001759,"INCLINATION":87.8852,"RA_OF_ASC_NODE":54.4118,"ARG_OF_PERICENTER":84.0434,"MEAN_ANOMALY":276.0895,"EPHEMERIS_TYPE":0,"CLASSIFICATION_TYPE":"U","NORAD_CAT_ID":47265,"ELEMENT_SET_NO":999,"REV_AT_EPOCH":22265,"BSTAR":0.0011319,"MEAN_MOTION_DOT":4.2e-6,"MEAN_MOTION_DDOT":0},{"OBJECT_NAME":"ONEWEB-0120","OBJECT_ID":"2020-100J","EPOCH":"2025-07-31T15:38:29.034816","MEAN_MOTION":13.12442004,"ECCENTRICITY":0.0001632,"INCLINATION":87.8861,"RA_OF_ASC_NODE":54.4043,"ARG_OF_PERICENTER":84.277,"MEAN_ANOMALY":275.8544,"EPHEMERIS_TYPE":0,"CLASSIFICATION_TYPE":"U","NORAD_CAT_ID":47266,"ELEMENT_SET_NO":999,"REV_AT_EPOCH":22268,"BSTAR":-0.00034239,"MEAN_MOTION_DOT":-1.1e-6,"MEAN_MOTION_DDOT":0},{"OBJECT_NAME":"ONEWEB-0121","OBJECT_ID":"2020-100K","EPOCH":"2025-07-31T15:21:56.767968","MEAN_MOTION":13.12441858,"ECCENTRICITY":0.0001837,"INCLINATION":87.8855,"RA_OF_ASC_NODE":54.3763,"ARG_OF_PERICENTER":84.6375,"MEAN_ANOMALY":275.4963,"EPHEMERIS_TYPE":0,"CLASSIFICATION_TYPE":"U","NORAD_CAT_ID":47267,"ELEMENT_SET_NO":999,"REV_AT_EPOCH":22259,"BSTAR":0.00068197,"MEAN_MOTION_DOT":2.58e-6,"MEAN_MOTION_DDOT":0},{"OBJECT_NAME":"ONEWEB-0122","OBJECT_ID":"2020-100L","EPOCH":"2025-07-31T15:14:43.302624","MEAN_MOTION":13.12442913,"ECCENTRICITY":0.0001759,"INCLINATION":87.885,"RA_OF_ASC_NODE":54.3811,"ARG_OF_PERICENTER":80.349,"MEAN_ANOMALY":279.7837,"EPHEMERIS_TYPE":0,"CLASSIFICATION_TYPE":"U","NORAD_CAT_ID":47268,"ELEMENT_SET_NO":999,"REV_AT_EPOCH":22250,"BSTAR":0.00097969,"MEAN_MOTION_DOT":3.65e-6,"MEAN_MOTION_DDOT":0},{"OBJECT_NAME":"ONEWEB-0123","OBJECT_ID":"2020-100M","EPOCH":"2025-07-31T15:07:54.774912","MEAN_MOTION":13.12443025,"ECCENTRICITY":0.0001676,"INCLINATION":87.8849,"RA_OF_ASC_NODE":54.4096,"ARG_OF_PERICENTER":88.2528,"MEAN_ANOMALY":271.8793,"EPHEMERIS_TYPE":0,"CLASSIFICATION_TYPE":"U","NORAD_CAT_ID":47269,"ELEMENT_SET_NO":999,"REV_AT_EPOCH":22264,"BSTAR":0.0012964,"MEAN_MOTION_DOT":4.79e-6,"MEAN_MOTION_DDOT":0},{"OBJECT_NAME":"ONEWEB-0124","OBJECT_ID":"2020-100N","EPOCH":"2025-07-31T14:51:33.433344","MEAN_MOTION":13.12442429,"ECCENTRICITY":0.0001931,"INCLINATION":87.886,"RA_OF_ASC_NODE":54.4108,"ARG_OF_PERICENTER":88.2257,"MEAN_ANOMALY":271.9092,"EPHEMERIS_TYPE":0,"CLASSIFICATION_TYPE":"U","NORAD_CAT_ID":47270,"ELEMENT_SET_NO":999,"REV_AT_EPOCH":22252,"BSTAR":0.0011477,"MEAN_MOTION_DOT":4.26e-6,"MEAN_MOTION_DDOT":0}]
