ONEWEB-0034             
1 45454U 20020AG  25212.60275467 -.00000607  00000+0 -17493-2 0  9995
2 45454  87.8812  84.9470 0001775  79.1492 280.9836 13.11417062260574
ONEWEB-0060             
1 45455U 20020AH  25212.57394733  .00000192  00000+0  50528-3 0  9994
2 45455  87.8807  84.9821 0002944  81.8555 278.2907 13.11412775260528
ONEWEB-0086             
1 45456U 20020AJ  25212.70536526  .00000466  00000+0  12800-2 0  9992
2 45456  87.8813  84.9242 0002440  69.9187 290.2203 13.11416836260606
ONEWEB-0088             
1 45457U 20020AK  25212.60699155 -.00000399  00000+0 -11616-2 0  9991
2 45457  87.8810  84.8908 0001787  83.8275 276.3056 13.11419290260527
ONEWEB-0102             
1 47258U 20100A   25212.63373483  .00000319  00000+0  85137-3 0  9997
2 47258  87.8849  54.4111 0001627  81.7813 278.3500 13.12441524222684
ONEWEB-0109             
1 47259U 20100B   25212.56561175  .00000190  00000+0  49383-3 0  9997
2 47259  87.8850  54.3947 0001713  82.1029 278.0294 13.12441170222508
ONEWEB-0110             
1 47260U 20100C   25212.59155846 -.00000389  00000+0 -11170-2 0  9990
2 47260  87.8856  54.3722 0002021  81.9946 278.1412 13.12443167222674
ONEWEB-0111             
1 47261U 20100D   25212.62238151  .00000442  00000+0  11945-2 0  9994
2 47261  87.8855  54.3819 0001738  85.1910 274.9417 13.12443200222512
ONEWEB-0114             
1 47262U 20100E   25212.57694833 -.00000197  00000+0 -58189-3 0  9993
2 47262  87.8844  54.3887 0001440  80.4456 279.6835 13.12441195222460
ONEWEB-0117             
1 47263U 20100F   25212.56885097  .00000094  00000+0  22535-3 0  9997
2 47263  87.8855  54.3841 0001783  86.2566 273.8766 13.12442352222475
ONEWEB-0118             
1 47264U 20100G   25212.83000265 -.00000210  00000+0 -61774-3 0  9994
2 47264  87.8857  54.3323 0001420  91.8034 268.3257 13.12443471222706
ONEWEB-0119             
1 47265U 20100H   25212.62887714  .00000420  00000+0  11319-2 0  9994
2 47265  87.8852  54.4118 0001759  84.0434 276.0895 13.12442798222657
ONEWEB-0120             
1 47266U 20100J   25212.65172494 -.00000110  00000+0 -34239-3 0  9995
2 47266  87.8861  54.4043 0001632  84.2770 275.8544 13.12442004222681
ONEWEB-0121             
1 47267U 20100K   25212.64024037  .00000258  00000+0  68197-3 0  9995
2 47267  87.8855  54.3763 0001837  84.6375 275.4963 13.12441858222592
ONEWEB-0122             
1 47268U 20100L   25212.63522341  .00000365  00000+0  97969-3 0  9994
2 47268  87.8850  54.3811 0001759  80.3490 279.7837 13.12442913222507
ONEWEB-0123             
1 47269U 20100M   25212.63049508  .00000479  00000+0  12964-2 0  9991
2 47269  87.8849  54.4096 0001676  88.2528 271.8793 13.12443025222643
ONEWEB-0124             
1 47270U 20100N   25212.61913696  .00000426  00000+0  11477-2 0  9999
2 47270  87.8860  54.4108 0001931  88.2257 271.9092 13.12442429222522
